ONEWEB-0645             
1 55809U 23029P   24170.79346242  .00000092  00000+0  19674-3 0  9994
2 55809  87.9159  89.9270 0002632  80.3486 279.7944 13.19725926 62831
ONEWEB-0646             
1 55810U 23029Q   24170.74765064  .00000010  00000+0 -74994-5 0  9997
2 55810  87.9159  89.9357 0002191  72.2027 287.9344 13.19724408 62817
ONEWEB-0648             
1 55811U 23029R   24170.96966660  .00000029  00000+0  42750-4 0  9990
2 55811  87.8973  74.5839 0003074  73.8977 286.2491 13.14503114 63728
ONEWEB-0649             
1 55812U 23029S   24170.78634613  .00000040  00000+0  66971-4 0  9995
2 55812  87.9157  89.9236 0002533  74.8197 285.3216 13.19724495 62859
ONEWEB-0650             
1 55813U 23029T   24170.78161715  .00000032  00000+0  48136-4 0  9998
2 55813  87.9157  89.9262 0002281  71.6158 288.5222 13.19726113 62829
ONEWEB-0652             
1 55814U 23029U   24170.79838782 -.00000038  00000+0 -13742-3 0  9997
2 55814  87.8972  74.6299 0001839  80.8296 279.3042 13.14503413 63671
ONEWEB-0653             
1 55815U 23029V   24170.78253170  .00000043  00000+0  82221-4 0  9992
2 55815  87.8972  74.6130 0002024  88.0179 272.1183 13.14503765 63704
